[
    {
        "Altitude(m)": 617719.7957803862,
        "Argument of Periapsis(deg)": 0.0,
        "Eccentricity": 0.0,
        "Inclination(deg)": 60.0,
        "Latitude(deg)": -41.10270734502222,
        "Longitude(deg)": -79.90536223889966,
        "Mean Anomaly(deg)": -130.90909999999997,
        "RAAN(deg)": 170.00000000000003,
        "Satellite Name": "Test1 762",
        "Satellite Number": 762,
        "Semi-Major Axis(m)": 6980739.136638005,
        "Time(s)": 0
    },
    {
        "Altitude(m)": 617911.331771706,
        "Argument of Periapsis(deg)": 0.00010418945913296404,
        "Eccentricity": 0.0,
        "Inclination(deg)": 60.0,
        "Latitude(deg)": -41.56589940563727,
        "Longitude(deg)": -79.40095532104667,
        "Mean Anomaly(deg)": -130.28899385453815,
        "RAAN(deg)": 169.99957995086027,
        "Satellite Name": "Test1 762",
        "Satellite Number": 762,
        "Semi-Major Axis(m)": 6980739.136638005,
        "Time(s)": 10
    }
]